[{"OBJECT_NAME":"KUZGTU 1 (RS47S)","OBJECT_ID":"2023-091AV","EPOCH":"2026-03-09T22:22:51.965760","MEAN_MOTION":15.27481352,"ECCENTRICITY":0.0012896,"INCLINATION":97.5178,"RA_OF_ASC_NODE":132.5224,"ARG_OF_PERICENTER":89.3666,"MEAN_ANOMALY":270.9051,"EPHEMERIS_TYPE":0,"CLASSIFICATION_TYPE":"U","NORAD_CAT_ID":57217,"ELEMENT_SET_NO":999,"REV_AT_EPOCH":14921,"BSTAR":0.00057711473,"MEAN_MOTION_DOT":0.00015496,"MEAN_MOTION_DDOT":0},{"OBJECT_NAME":"STARLINK-32353","OBJECT_ID":"2024-187P","EPOCH":"2026-03-09T10:07:45.453504","MEAN_MOTION":15.30205817,"ECCENTRICITY":0.00011866,"INCLINATION":53.1583,"RA_OF_ASC_NODE":66.1995,"ARG_OF_PERICENTER":101.2461,"MEAN_ANOMALY":258.8673,"EPHEMERIS_TYPE":0,"CLASSIFICATION_TYPE":"U","NORAD_CAT_ID":61587,"ELEMENT_SET_NO":999,"REV_AT_EPOCH":7898,"BSTAR":0.00061661825,"MEAN_MOTION_DOT":0.00017951,"MEAN_MOTION_DDOT":0}]
